{
  "type": "FeatureCollection",
  "features": [
    {
      "type": "Feature",
      "properties": {
        "norad_id": 37320,
        "name": "COSMOS 2251 DEB",
        "group": "cosmos-2251-debris",
        "lat": -69.27788973028868,
        "lon": -174.1038389041993,
        "alt_km": 615.4838121340381,
        "timestamp": "2025-12-04T03:47:54.939685+00:00",
        "meta_object_name": "COSMOS 2251 DEB",
        "meta_object_id": "1993-036BKL",
        "meta_epoch": "2025-12-02T00:10:39.701280",
        "meta_mean_motion": 14.78545682,
        "meta_eccentricity": 0.00470256,
        "meta_inclination": 74.0466,
        "meta_ra_of_asc_node": 239.2444,
        "meta_arg_of_pericenter": 328.4287,
        "meta_mean_anomaly": 31.4068,
        "meta_ephemeris_type": 0,
        "meta_classification_type": "U",
        "meta_norad_cat_id": 37320,
        "meta_element_set_no": 999,
        "meta_rev_at_epoch": 65988,
        "meta_bstar": 0.0011433945,
        "meta_mean_motion_dot": 8.49e-05,
        "meta_mean_motion_ddot": 0,
        "tle_line1": "1 37320U 93036BKL 25336.00740395  .00008490  00000+0  11434-2 0  9998",
        "tle_line2": "2 37320  74.0466 239.2444 0047025 328.4287  31.4068 14.78545682659882"
      },
      "geometry": {
        "type": "Point",
        "coordinates": [
          -174.1038389041993,
          -69.27788973028868
        ]
      }
    },
    {
      "type": "Feature",
      "properties": {
        "norad_id": 37326,
        "name": "COSMOS 2251 DEB",
        "group": "cosmos-2251-debris",
        "lat": -57.02185210064597,
        "lon": -35.068887412169964,
        "alt_km": 734.0126424744603,
        "timestamp": "2025-12-04T03:47:54.939695+00:00",
        "meta_object_name": "COSMOS 2251 DEB",
        "meta_object_id": "1993-036BKS",
        "meta_epoch": "2025-11-27T19:17:38.237856",
        "meta_mean_motion": 14.61468685,
        "meta_eccentricity": 0.00552422,
        "meta_inclination": 74.0262,
        "meta_ra_of_asc_node": 3.2841,
        "meta_arg_of_pericenter": 136.8831,
        "meta_mean_anomaly": 223.6683,
        "meta_ephemeris_type": 0,
        "meta_classification_type": "U",
        "meta_norad_cat_id": 37326,
        "meta_element_set_no": 999,
        "meta_rev_at_epoch": 85265,
        "meta_bstar": 0.00046910947,
        "meta_mean_motion_dot": 2.345e-05,
        "meta_mean_motion_ddot": 0,
        "tle_line1": "1 37326U 93036BKS 25331.80391479  .00002345  00000+0  46911-3 0  9994",
        "tle_line2": "2 37326  74.0262   3.2841 0055242 136.8831 223.6683 14.61468685852655"
      },
      "geometry": {
        "type": "Point",
        "coordinates": [
          -35.068887412169964,
          -57.02185210064597
        ]
      }
    },
    {
      "type": "Feature",
      "properties": {
        "norad_id": 37330,
        "name": "COSMOS 2251 DEB",
        "group": "cosmos-2251-debris",
        "lat": -1.833622636631993,
        "lon": -49.054096912115355,
        "alt_km": 736.8302745927049,
        "timestamp": "2025-12-04T03:47:54.939705+00:00",
        "meta_object_name": "COSMOS 2251 DEB",
        "meta_object_id": "1993-036BKW",
        "meta_epoch": "2025-12-01T16:35:02.444064",
        "meta_mean_motion": 14.59484724,
        "meta_eccentricity": 0.00575212,
        "meta_inclination": 74.017,
        "meta_ra_of_asc_node": 316.1795,
        "meta_arg_of_pericenter": 167.7697,
        "meta_mean_anomaly": 192.4881,
        "meta_ephemeris_type": 0,
        "meta_classification_type": "U",
        "meta_norad_cat_id": 37330,
        "meta_element_set_no": 999,
        "meta_rev_at_epoch": 86207,
        "meta_bstar": 0.00032461737,
        "meta_mean_motion_dot": 1.545e-05,
        "meta_mean_motion_ddot": 0,
        "tle_line1": "1 37330U 93036BKW 25335.69100051  .00001545  00000+0  32462-3 0  9991",
        "tle_line2": "2 37330  74.0170 316.1795 0057521 167.7697 192.4881 14.59484724862076"
      },
      "geometry": {
        "type": "Point",
        "coordinates": [
          -49.054096912115355,
          -1.833622636631993
        ]
      }
    },
    {
      "type": "Feature",
      "properties": {
        "norad_id": 37331,
        "name": "COSMOS 2251 DEB",
        "group": "cosmos-2251-debris",
        "lat": 20.78680610917359,
        "lon": -102.65856247343604,
        "alt_km": 753.1890540896029,
        "timestamp": "2025-12-04T03:47:54.939715+00:00",
        "meta_object_name": "COSMOS 2251 DEB",
        "meta_object_id": "1993-036BKX",
        "meta_epoch": "2025-12-01T01:26:56.105376",
        "meta_mean_motion": 14.34963315,
        "meta_eccentricity": 0.0055446,
        "meta_inclination": 74.0748,
        "meta_ra_of_asc_node": 89.2257,
        "meta_arg_of_pericenter": 107.2854,
        "meta_mean_anomaly": 253.4376,
        "meta_ephemeris_type": 0,
        "meta_classification_type": "U",
        "meta_norad_cat_id": 37331,
        "meta_element_set_no": 999,
        "meta_rev_at_epoch": 84592,
        "meta_bstar": 0.00070853607,
        "meta_mean_motion_dot": 2.027e-05,
        "meta_mean_motion_ddot": 0,
        "tle_line1": "1 37331U 93036BKX 25335.06037159  .00002027  00000+0  70854-3 0  9994",
        "tle_line2": "2 37331  74.0748  89.2257 0055446 107.2854 253.4376 14.34963315845920"
      },
      "geometry": {
        "type": "Point",
        "coordinates": [
          -102.65856247343604,
          20.78680610917359
        ]
      }
    },
    {
      "type": "Feature",
      "properties": {
        "norad_id": 37336,
        "name": "COSMOS 2251 DEB",
        "group": "cosmos-2251-debris",
        "lat": -26.645299824335932,
        "lon": 175.13771260054975,
        "alt_km": 803.6063048184478,
        "timestamp": "2025-12-04T03:47:54.939725+00:00",
        "meta_object_name": "COSMOS 2251 DEB",
        "meta_object_id": "1993-036BLC",
        "meta_epoch": "2025-12-01T07:48:14.136768",
        "meta_mean_motion": 14.32750931,
        "meta_eccentricity": 0.00286304,
        "meta_inclination": 74.0414,
        "meta_ra_of_asc_node": 352.0528,
        "meta_arg_of_pericenter": 73.4193,
        "meta_mean_anomaly": 287.0099,
        "meta_ephemeris_type": 0,
        "meta_classification_type": "U",
        "meta_norad_cat_id": 37336,
        "meta_element_set_no": 999,
        "meta_rev_at_epoch": 64956,
        "meta_bstar": 8.422431e-05,
        "meta_mean_motion_dot": 2.05e-06,
        "meta_mean_motion_ddot": 0,
        "tle_line1": "1 37336U 93036BLC 25335.32516362  .00000205  00000+0  84224-4 0  9999",
        "tle_line2": "2 37336  74.0414 352.0528 0028630  73.4193 287.0099 14.32750931649565"
      },
      "geometry": {
        "type": "Point",
        "coordinates": [
          175.13771260054975,
          -26.645299824335932
        ]
      }
    },
    {
      "type": "Feature",
      "properties": {
        "norad_id": 37340,
        "name": "COSMOS 2251 DEB",
        "group": "cosmos-2251-debris",
        "lat": -57.20300754612027,
        "lon": -93.45097929802786,
        "alt_km": 775.6917531310773,
        "timestamp": "2025-12-04T03:47:54.939735+00:00",
        "meta_object_name": "COSMOS 2251 DEB",
        "meta_object_id": "1993-036BLG",
        "meta_epoch": "2025-12-02T15:19:15.488544",
        "meta_mean_motion": 14.36901939,
        "meta_eccentricity": 0.00173218,
        "meta_inclination": 74.0249,
        "meta_ra_of_asc_node": 295.7387,
        "meta_arg_of_pericenter": 33.3574,
        "meta_mean_anomaly": 326.8667,
        "meta_ephemeris_type": 0,
        "meta_classification_type": "U",
        "meta_norad_cat_id": 37340,
        "meta_element_set_no": 999,
        "meta_rev_at_epoch": 83922,
        "meta_bstar": 0.00027978609,
        "meta_mean_motion_dot": 8.03e-06,
        "meta_mean_motion_ddot": 0,
        "tle_line1": "1 37340U 93036BLG 25336.63837371  .00000803  00000+0  27979-3 0  9992",
        "tle_line2": "2 37340  74.0249 295.7387 0017321  33.3574 326.8667 14.36901939839222"
      },
      "geometry": {
        "type": "Point",
        "coordinates": [
          -93.45097929802786,
          -57.20300754612027
        ]
      }
    },
    {
      "type": "Feature",
      "properties": {
        "norad_id": 37483,
        "name": "COSMOS 2251 DEB",
        "group": "cosmos-2251-debris",
        "lat": -25.824442228414345,
        "lon": -12.65801648554935,
        "alt_km": 814.4838341498853,
        "timestamp": "2025-12-04T03:47:54.939745+00:00",
        "meta_object_name": "COSMOS 2251 DEB",
        "meta_object_id": "1993-036BLL",
        "meta_epoch": "2025-12-02T19:14:27.105504",
        "meta_mean_motion": 14.43532369,
        "meta_eccentricity": 0.00926542,
        "meta_inclination": 73.9725,
        "meta_ra_of_asc_node": 161.8757,
        "meta_arg_of_pericenter": 10.6514,
        "meta_mean_anomaly": 349.6575,
        "meta_ephemeris_type": 0,
        "meta_classification_type": "U",
        "meta_norad_cat_id": 37483,
        "meta_element_set_no": 999,
        "meta_rev_at_epoch": 65136,
        "meta_bstar": 0.00025341126,
        "meta_mean_motion_dot": 8.75e-06,
        "meta_mean_motion_ddot": 0,
        "tle_line1": "1 37483U 93036BLL 25336.80170261  .00000875  00000+0  25341-3 0  9997",
        "tle_line2": "2 37483  73.9725 161.8757 0092654  10.6514 349.6575 14.43532369651368"
      },
      "geometry": {
        "type": "Point",
        "coordinates": [
          -12.65801648554935,
          -25.824442228414345
        ]
      }
    }
  ]
}